CCSDS_OMM_VERS = 2.0
CREATION_DATE  = 
ORIGINATOR     = 

OBJECT_NAME    = SHIJIAN-30A
OBJECT_ID      = 2025-266A
CENTER_NAME    = EARTH
REF_FRAME      = TEME
TIME_SYSTEM    = UTC
MEAN_ELEMENT_THEORY = SGP/SGP4

EPOCH          = 2025-11-30T22:51:56.500992
MEAN_MOTION    = 15.15260232
ECCENTRICITY   = .00126857
INCLINATION    = 51.7988
RA_OF_ASC_NODE = 28.0722
ARG_OF_PERICENTER = 313.9560
MEAN_ANOMALY   = 46.0369

EPHEMERIS_TYPE = 0
CLASSIFICATION_TYPE = U
NORAD_CAT_ID   = 66545
ELEMENT_SET_NO = 999
REV_AT_EPOCH   = 179
BSTAR          = .68192323E-3
MEAN_MOTION_DOT = .12725E-3
MEAN_MOTION_DDOT = 0

CCSDS_OMM_VERS = 2.0
CREATION_DATE  = 
ORIGINATOR     = 

OBJECT_NAME    = SHIJIAN-30B
OBJECT_ID      = 2025-266B
CENTER_NAME    = EARTH
REF_FRAME      = TEME
TIME_SYSTEM    = UTC
MEAN_ELEMENT_THEORY = SGP/SGP4

EPOCH          = 2025-11-30T22:53:30.011712
MEAN_MOTION    = 15.15310875
ECCENTRICITY   = .00103699
INCLINATION    = 51.7971
RA_OF_ASC_NODE = 28.0778
ARG_OF_PERICENTER = 316.7755
MEAN_ANOMALY   = 43.2407

EPHEMERIS_TYPE = 0
CLASSIFICATION_TYPE = U
NORAD_CAT_ID   = 66546
ELEMENT_SET_NO = 999
REV_AT_EPOCH   = 179
BSTAR          = .78979568E-3
MEAN_MOTION_DOT = .14804E-3
MEAN_MOTION_DDOT = 0

CCSDS_OMM_VERS = 2.0
CREATION_DATE  = 
ORIGINATOR     = 

OBJECT_NAME    = SHIJIAN-30C
OBJECT_ID      = 2025-266C
CENTER_NAME    = EARTH
REF_FRAME      = TEME
TIME_SYSTEM    = UTC
MEAN_ELEMENT_THEORY = SGP/SGP4

EPOCH          = 2025-11-30T22:54:41.032512
MEAN_MOTION    = 15.15358214
ECCENTRICITY   = .00113018
INCLINATION    = 51.7982
RA_OF_ASC_NODE = 28.0835
ARG_OF_PERICENTER = 309.0700
MEAN_ANOMALY   = 50.9271

EPHEMERIS_TYPE = 0
CLASSIFICATION_TYPE = U
NORAD_CAT_ID   = 66547
ELEMENT_SET_NO = 999
REV_AT_EPOCH   = 179
BSTAR          = .68581535E-3
MEAN_MOTION_DOT = .12831E-3
MEAN_MOTION_DDOT = 0

CCSDS_OMM_VERS = 2.0
CREATION_DATE  = 
ORIGINATOR     = 

OBJECT_NAME    = CZ-2C R/B
OBJECT_ID      = 2025-266D
CENTER_NAME    = EARTH
REF_FRAME      = TEME
TIME_SYSTEM    = UTC
MEAN_ELEMENT_THEORY = SGP/SGP4

EPOCH          = 2025-11-30T23:23:54.625056
MEAN_MOTION    = 15.29775022
ECCENTRICITY   = .00850129
INCLINATION    = 52.0539
RA_OF_ASC_NODE = 27.3136
ARG_OF_PERICENTER = 132.9697
MEAN_ANOMALY   = 227.8458

EPHEMERIS_TYPE = 0
CLASSIFICATION_TYPE = U
NORAD_CAT_ID   = 66548
ELEMENT_SET_NO = 999
REV_AT_EPOCH   = 181
BSTAR          = .40780202E-3
MEAN_MOTION_DOT = .12938E-3
MEAN_MOTION_DDOT = 0

CCSDS_OMM_VERS = 2.0
CREATION_DATE  = 
ORIGINATOR     = 

OBJECT_NAME    = SHIJIAN-28
OBJECT_ID      = 2025-277A
CENTER_NAME    = EARTH
REF_FRAME      = TEME
TIME_SYSTEM    = UTC
MEAN_ELEMENT_THEORY = SGP/SGP4

EPOCH          = 2025-11-30T18:06:43.124256
MEAN_MOTION    = 2.28019775
ECCENTRICITY   = .7300519
INCLINATION    = 14.4344
RA_OF_ASC_NODE = 275.4056
ARG_OF_PERICENTER = 179.5026
MEAN_ANOMALY   = 182.3580

EPHEMERIS_TYPE = 0
CLASSIFICATION_TYPE = U
NORAD_CAT_ID   = 66549
ELEMENT_SET_NO = 999
REV_AT_EPOCH   = 4
BSTAR          = .62085E-3
MEAN_MOTION_DOT = .6315E-4
MEAN_MOTION_DDOT = 0

CCSDS_OMM_VERS = 2.0
CREATION_DATE  = 
ORIGINATOR     = 

OBJECT_NAME    = CZ-7A R/B
OBJECT_ID      = 2025-277B
CENTER_NAME    = EARTH
REF_FRAME      = TEME
TIME_SYSTEM    = UTC
MEAN_ELEMENT_THEORY = SGP/SGP4

EPOCH          = 2025-11-30T08:01:25.993632
MEAN_MOTION    = 2.39605114
ECCENTRICITY   = .7237467
INCLINATION    = 14.4324
RA_OF_ASC_NODE = 275.7460
ARG_OF_PERICENTER = 177.8910
MEAN_ANOMALY   = 189.2280

EPHEMERIS_TYPE = 0
CLASSIFICATION_TYPE = U
NORAD_CAT_ID   = 66550
ELEMENT_SET_NO = 999
REV_AT_EPOCH   = 3
BSTAR          = .39957E-3
MEAN_MOTION_DOT = .91857E-3
MEAN_MOTION_DDOT = -.33208E-6

CCSDS_OMM_VERS = 2.0
CREATION_DATE  = 
ORIGINATOR     = 

OBJECT_NAME    = GLOBAL-33
OBJECT_ID      = 2025-267A
CENTER_NAME    = EARTH
REF_FRAME      = TEME
TIME_SYSTEM    = UTC
MEAN_ELEMENT_THEORY = SGP/SGP4

EPOCH          = 2025-11-30T20:37:12.713952
MEAN_MOTION    = 15.31198350
ECCENTRICITY   = .00058107
INCLINATION    = 42.0187
RA_OF_ASC_NODE = 125.5612
ARG_OF_PERICENTER = 329.1541
MEAN_ANOMALY   = 30.8954

EPHEMERIS_TYPE = 0
CLASSIFICATION_TYPE = U
NORAD_CAT_ID   = 66554
ELEMENT_SET_NO = 999
REV_AT_EPOCH   = 158
BSTAR          = .42405985E-3
MEAN_MOTION_DOT = .12831E-3
MEAN_MOTION_DDOT = 0

CCSDS_OMM_VERS = 2.0
CREATION_DATE  = 
ORIGINATOR     = 

OBJECT_NAME    = ELECTRON KICK STAGE R/B
OBJECT_ID      = 2025-267B
CENTER_NAME    = EARTH
REF_FRAME      = TEME
TIME_SYSTEM    = UTC
MEAN_ELEMENT_THEORY = SGP/SGP4

EPOCH          = 2025-11-30T18:57:00.719424
MEAN_MOTION    = 15.31971192
ECCENTRICITY   = .00075967
INCLINATION    = 42.0167
RA_OF_ASC_NODE = 125.9073
ARG_OF_PERICENTER = 328.8314
MEAN_ANOMALY   = 31.2072

EPHEMERIS_TYPE = 0
CLASSIFICATION_TYPE = U
NORAD_CAT_ID   = 66555
ELEMENT_SET_NO = 999
REV_AT_EPOCH   = 157
BSTAR          = .73857898E-3
MEAN_MOTION_DOT = .23132E-3
MEAN_MOTION_DDOT = 0

CCSDS_OMM_VERS = 2.0
CREATION_DATE  = 
ORIGINATOR     = 

OBJECT_NAME    = STARLINK-35699
OBJECT_ID      = 2025-268A
CENTER_NAME    = EARTH
REF_FRAME      = TEME
TIME_SYSTEM    = UTC
MEAN_ELEMENT_THEORY = SGP/SGP4

EPOCH          = 2025-11-30T22:00:03.000096
MEAN_MOTION    = 15.82642767
ECCENTRICITY   = .00016471
INCLINATION    = 42.9964
RA_OF_ASC_NODE = 191.6142
ARG_OF_PERICENTER = 279.6479
MEAN_ANOMALY   = 186.7131

EPHEMERIS_TYPE = 0
CLASSIFICATION_TYPE = U
NORAD_CAT_ID   = 66557
ELEMENT_SET_NO = 999
REV_AT_EPOCH   = 277
BSTAR          = -.7363379E-2
MEAN_MOTION_DOT = -.1419759E-1
MEAN_MOTION_DDOT = 0

CCSDS_OMM_VERS = 2.0
CREATION_DATE  = 
ORIGINATOR     = 

OBJECT_NAME    = STARLINK-35695
OBJECT_ID      = 2025-268B
CENTER_NAME    = EARTH
REF_FRAME      = TEME
TIME_SYSTEM    = UTC
MEAN_ELEMENT_THEORY = SGP/SGP4

EPOCH          = 2025-11-30T22:00:03.000096
MEAN_MOTION    = 15.82659346
ECCENTRICITY   = .00016035
INCLINATION    = 42.9964
RA_OF_ASC_NODE = 191.6094
ARG_OF_PERICENTER = 278.8803
MEAN_ANOMALY   = 189.4322

EPHEMERIS_TYPE = 0
CLASSIFICATION_TYPE = U
NORAD_CAT_ID   = 66558
ELEMENT_SET_NO = 999
REV_AT_EPOCH   = 277
BSTAR          = -.73449288E-2
MEAN_MOTION_DOT = -.1417562E-1
MEAN_MOTION_DDOT = 0

CCSDS_OMM_VERS = 2.0
CREATION_DATE  = 
ORIGINATOR     = 

OBJECT_NAME    = STARLINK-35419
OBJECT_ID      = 2025-268C
CENTER_NAME    = EARTH
REF_FRAME      = TEME
TIME_SYSTEM    = UTC
MEAN_ELEMENT_THEORY = SGP/SGP4

EPOCH          = 2025-11-30T22:00:03.000096
MEAN_MOTION    = 15.82673766
ECCENTRICITY   = .00015464
INCLINATION    = 42.9962
RA_OF_ASC_NODE = 191.6039
ARG_OF_PERICENTER = 270.4454
MEAN_ANOMALY   = 200.0008

EPHEMERIS_TYPE = 0
CLASSIFICATION_TYPE = U
NORAD_CAT_ID   = 66559
ELEMENT_SET_NO = 999
REV_AT_EPOCH   = 277
BSTAR          = -.7444847E-2
MEAN_MOTION_DOT = -.1435515E-1
MEAN_MOTION_DDOT = 0

CCSDS_OMM_VERS = 2.0
CREATION_DATE  = 
ORIGINATOR     = 

OBJECT_NAME    = STARLINK-35411
OBJECT_ID      = 2025-268D
CENTER_NAME    = EARTH
REF_FRAME      = TEME
TIME_SYSTEM    = UTC
MEAN_ELEMENT_THEORY = SGP/SGP4

EPOCH          = 2025-11-30T22:00:03.000096
MEAN_MOTION    = 15.82690715
ECCENTRICITY   = .00014977
INCLINATION    = 42.9964
RA_OF_ASC_NODE = 191.5989
ARG_OF_PERICENTER = 271.4592
MEAN_ANOMALY   = 200.9933

EPHEMERIS_TYPE = 0
CLASSIFICATION_TYPE = U
NORAD_CAT_ID   = 66560
ELEMENT_SET_NO = 999
REV_AT_EPOCH   = 277
BSTAR          = -.74746601E-2
MEAN_MOTION_DOT = -.1441612E-1
MEAN_MOTION_DDOT = 0

