SHIJIAN-30A             
1 66545U 25266A   25334.95273728  .00012725  00000+0  68192-3 0  9992
2 66545  51.7988  28.0722 0012685 313.9560  46.0369 15.15260232  1798
SHIJIAN-30B             
1 66546U 25266B   25334.95381958  .00014804  00000+0  78980-3 0  9994
2 66546  51.7971  28.0778 0010369 316.7755  43.2407 15.15310875  1797
SHIJIAN-30C             
1 66547U 25266C   25334.95464158  .00012831  00000+0  68582-3 0  9994
2 66547  51.7982  28.0835 0011301 309.0700  50.9271 15.15358214  1799
CZ-2C R/B               
1 66548U 25266D   25334.97493779  .00012938  00000+0  40780-3 0  9996
2 66548  52.0539  27.3136 0085012 132.9697 227.8458 15.29775022  1816
SHIJIAN-28              
1 66549U 25277A   25334.75466579  .00006315  00000+0  62085-3 0  9997
2 66549  14.4344 275.4056 7300519 179.5026 182.3580  2.28019775    48
CZ-7A R/B               
1 66550U 25277B   25334.33432863  .00091857 -33208-6  39957-3 0  9993
2 66550  14.4324 275.7460 7237467 177.8910 189.2280  2.39605114    36
GLOBAL-33               
1 66554U 25267A   25334.85917493  .00012831  00000+0  42406-3 0  9994
2 66554  42.0187 125.5612 0005810 329.1541  30.8954 15.31198350  1580
ELECTRON KICK STAGE R/B 
1 66555U 25267B   25334.78959166  .00023132  00000+0  73858-3 0  9991
2 66555  42.0167 125.9073 0007596 328.8314  31.2072 15.31971192  1579
STARLINK-35699          
1 66557U 25268A   25334.91670139 -.01419759  00000+0 -73634-2 0  9997
2 66557  42.9964 191.6142 0001647 279.6479 186.7131 15.82642767  2772
STARLINK-35695          
1 66558U 25268B   25334.91670139 -.01417562  00000+0 -73449-2 0  9992
2 66558  42.9964 191.6094 0001603 278.8803 189.4322 15.82659346  2776
STARLINK-35419          
1 66559U 25268C   25334.91670139 -.01435515  00000+0 -74448-2 0  9991
2 66559  42.9962 191.6039 0001546 270.4454 200.0008 15.82673766  2773
STARLINK-35411          
1 66560U 25268D   25334.91670139 -.01441612  00000+0 -74747-2 0  9990
2 66560  42.9964 191.5989 0001497 271.4592 200.9933 15.82690715  2778
